{
  "type": "FeatureCollection",
  "features": [
    {
      "type": "Feature",
      "properties": {
        "norad_id": 33901,
        "name": "COSMOS 2251 DEB",
        "group": "cosmos-2251-debris",
        "lat": -9.585744724295964,
        "lon": 24.297415845943057,
        "alt_km": 539.0245409793588,
        "timestamp": "2025-12-23T05:02:12.422789+00:00",
        "meta_object_name": "COSMOS 2251 DEB",
        "meta_object_id": "1993-036DE",
        "meta_epoch": "2025-12-22T19:35:03.114528",
        "meta_mean_motion": 15.1693363,
        "meta_eccentricity": 0.00299874,
        "meta_inclination": 73.7742,
        "meta_ra_of_asc_node": 27.9509,
        "meta_arg_of_pericenter": 158.784,
        "meta_mean_anomaly": 201.4605,
        "meta_ephemeris_type": 0,
        "meta_classification_type": "U",
        "meta_norad_cat_id": 33901,
        "meta_element_set_no": 999,
        "meta_rev_at_epoch": 89666,
        "meta_bstar": 0.0027694863,
        "meta_mean_motion_dot": 0.00055652,
        "meta_mean_motion_ddot": 0,
        "tle_line1": "1 33901U 93036DE  25356.81600827  .00055652  00000+0  27695-2 0  9993",
        "tle_line2": "2 33901  73.7742  27.9509 0029987 158.7840 201.4605 15.16933630896668"
      },
      "geometry": {
        "type": "Point",
        "coordinates": [
          24.297415845943057,
          -9.585744724295964
        ]
      }
    },
    {
      "type": "Feature",
      "properties": {
        "norad_id": 33905,
        "name": "COSMOS 2251 DEB",
        "group": "cosmos-2251-debris",
        "lat": -67.63402289048753,
        "lon": 161.89494857432646,
        "alt_km": 765.9070195411687,
        "timestamp": "2025-12-23T05:02:12.422800+00:00",
        "meta_object_name": "COSMOS 2251 DEB",
        "meta_object_id": "1993-036DJ",
        "meta_epoch": "2025-12-22T21:25:54.795648",
        "meta_mean_motion": 14.35418817,
        "meta_eccentricity": 0.00582468,
        "meta_inclination": 73.8867,
        "meta_ra_of_asc_node": 297.851,
        "meta_arg_of_pericenter": 185.1914,
        "meta_mean_anomaly": 231.6561,
        "meta_ephemeris_type": 0,
        "meta_classification_type": "U",
        "meta_norad_cat_id": 33905,
        "meta_element_set_no": 999,
        "meta_rev_at_epoch": 87833,
        "meta_bstar": 0.00052356948,
        "meta_mean_motion_dot": 1.506e-05,
        "meta_mean_motion_ddot": 0,
        "tle_line1": "1 33905U 93036DJ  25356.89299532  .00001506  00000+0  52357-3 0  9995",
        "tle_line2": "2 33905  73.8867 297.8510 0058246 185.1914 231.6561 14.35418817878332"
      },
      "geometry": {
        "type": "Point",
        "coordinates": [
          161.89494857432646,
          -67.63402289048753
        ]
      }
    },
    {
      "type": "Feature",
      "properties": {
        "norad_id": 33906,
        "name": "COSMOS 2251 DEB",
        "group": "cosmos-2251-debris",
        "lat": -54.411970973411876,
        "lon": 145.16405100301117,
        "alt_km": 709.3793579645326,
        "timestamp": "2025-12-23T05:02:12.422810+00:00",
        "meta_object_name": "COSMOS 2251 DEB",
        "meta_object_id": "1993-036DK",
        "meta_epoch": "2025-12-22T07:12:45.176832",
        "meta_mean_motion": 14.57239104,
        "meta_eccentricity": 0.00369318,
        "meta_inclination": 74.0309,
        "meta_ra_of_asc_node": 303.3041,
        "meta_arg_of_pericenter": 331.3199,
        "meta_mean_anomaly": 178.2637,
        "meta_ephemeris_type": 0,
        "meta_classification_type": "U",
        "meta_norad_cat_id": 33906,
        "meta_element_set_no": 999,
        "meta_rev_at_epoch": 88147,
        "meta_bstar": 0.0020302712,
        "meta_mean_motion_dot": 9.244e-05,
        "meta_mean_motion_ddot": 0,
        "tle_line1": "1 33906U 93036DK  25356.30052288  .00009244  00000+0  20303-2 0  9999",
        "tle_line2": "2 33906  74.0309 303.3041 0036931 331.3199 178.2637 14.57239104881479"
      },
      "geometry": {
        "type": "Point",
        "coordinates": [
          145.16405100301117,
          -54.411970973411876
        ]
      }
    },
    {
      "type": "Feature",
      "properties": {
        "norad_id": 33907,
        "name": "COSMOS 2251 DEB",
        "group": "cosmos-2251-debris",
        "lat": -66.72367547536874,
        "lon": -26.968629572893764,
        "alt_km": 857.4536541471089,
        "timestamp": "2025-12-23T05:02:12.422820+00:00",
        "meta_object_name": "COSMOS 2251 DEB",
        "meta_object_id": "1993-036DL",
        "meta_epoch": "2025-12-22T11:29:12.563232",
        "meta_mean_motion": 14.30589981,
        "meta_eccentricity": 0.01118629,
        "meta_inclination": 74.0693,
        "meta_ra_of_asc_node": 15.9616,
        "meta_arg_of_pericenter": 68.4867,
        "meta_mean_anomaly": 55.0515,
        "meta_ephemeris_type": 0,
        "meta_classification_type": "U",
        "meta_norad_cat_id": 33907,
        "meta_element_set_no": 999,
        "meta_rev_at_epoch": 86719,
        "meta_bstar": 0.0019780388,
        "meta_mean_motion_dot": 5.506e-05,
        "meta_mean_motion_ddot": 0,
        "tle_line1": "1 33907U 93036DL  25356.47861763  .00005506  00000+0  19780-2 0  9998",
        "tle_line2": "2 33907  74.0693  15.9616 0111862  68.4867  55.0515 14.30589981867199"
      },
      "geometry": {
        "type": "Point",
        "coordinates": [
          -26.968629572893764,
          -66.72367547536874
        ]
      }
    },
    {
      "type": "Feature",
      "properties": {
        "norad_id": 33908,
        "name": "COSMOS 2251 DEB",
        "group": "cosmos-2251-debris",
        "lat": 15.413221659983677,
        "lon": 2.6003213144704667,
        "alt_km": 752.7341936411312,
        "timestamp": "2025-12-23T05:02:12.422830+00:00",
        "meta_object_name": "COSMOS 2251 DEB",
        "meta_object_id": "1993-036DM",
        "meta_epoch": "2025-12-22T19:43:01.199424",
        "meta_mean_motion": 14.0741514,
        "meta_eccentricity": 0.02223827,
        "meta_inclination": 73.8365,
        "meta_ra_of_asc_node": 187.8753,
        "meta_arg_of_pericenter": 209.5233,
        "meta_mean_anomaly": 149.3197,
        "meta_ephemeris_type": 0,
        "meta_classification_type": "U",
        "meta_norad_cat_id": 33908,
        "meta_element_set_no": 999,
        "meta_rev_at_epoch": 85615,
        "meta_bstar": 0.0021897323,
        "meta_mean_motion_dot": 4.592e-05,
        "meta_mean_motion_ddot": 0,
        "tle_line1": "1 33908U 93036DM  25356.82154166  .00004592  00000+0  21897-2 0  9996",
        "tle_line2": "2 33908  73.8365 187.8753 0222382 209.5233 149.3197 14.07415140856155"
      },
      "geometry": {
        "type": "Point",
        "coordinates": [
          2.6003213144704667,
          15.413221659983677
        ]
      }
    },
    {
      "type": "Feature",
      "properties": {
        "norad_id": 33911,
        "name": "COSMOS 2251 DEB",
        "group": "cosmos-2251-debris",
        "lat": -38.563563115323475,
        "lon": 128.31826307827836,
        "alt_km": 655.0591146924671,
        "timestamp": "2025-12-23T05:02:12.422840+00:00",
        "meta_object_name": "COSMOS 2251 DEB",
        "meta_object_id": "1993-036DQ",
        "meta_epoch": "2025-12-22T20:07:55.852896",
        "meta_mean_motion": 14.75092709,
        "meta_eccentricity": 0.00139875,
        "meta_inclination": 74.0904,
        "meta_ra_of_asc_node": 142.1847,
        "meta_arg_of_pericenter": 75.4181,
        "meta_mean_anomaly": 74.9634,
        "meta_ephemeris_type": 0,
        "meta_classification_type": "U",
        "meta_norad_cat_id": 33911,
        "meta_element_set_no": 999,
        "meta_rev_at_epoch": 88793,
        "meta_bstar": 0.0021527339,
        "meta_mean_motion_dot": 0.00014537,
        "meta_mean_motion_ddot": 0,
        "tle_line1": "1 33911U 93036DQ  25356.83884089  .00014537  00000+0  21527-2 0  9995",
        "tle_line2": "2 33911  74.0904 142.1847 0013987  75.4181  74.9634 14.75092709887936"
      },
      "geometry": {
        "type": "Point",
        "coordinates": [
          128.31826307827836,
          -38.563563115323475
        ]
      }
    },
    {
      "type": "Feature",
      "properties": {
        "norad_id": 33912,
        "name": "COSMOS 2251 DEB",
        "group": "cosmos-2251-debris",
        "lat": 55.03053915698831,
        "lon": -165.83395236433373,
        "alt_km": 721.5975401680926,
        "timestamp": "2025-12-23T05:02:12.422850+00:00",
        "meta_object_name": "COSMOS 2251 DEB",
        "meta_object_id": "1993-036DR",
        "meta_epoch": "2025-12-22T22:44:22.259904",
        "meta_mean_motion": 14.51949848,
        "meta_eccentricity": 0.00113075,
        "meta_inclination": 74.0328,
        "meta_ra_of_asc_node": 170.4954,
        "meta_arg_of_pericenter": 249.4108,
        "meta_mean_anomaly": 238.1547,
        "meta_ephemeris_type": 0,
        "meta_classification_type": "U",
        "meta_norad_cat_id": 33912,
        "meta_element_set_no": 999,
        "meta_rev_at_epoch": 88581,
        "meta_bstar": 0.00079778157,
        "meta_mean_motion_dot": 3.196e-05,
        "meta_mean_motion_ddot": 0,
        "tle_line1": "1 33912U 93036DR  25356.94747986  .00003196  00000+0  79778-3 0  9993",
        "tle_line2": "2 33912  74.0328 170.4954 0011307 249.4108 238.1547 14.51949848885817"
      },
      "geometry": {
        "type": "Point",
        "coordinates": [
          -165.83395236433373,
          55.03053915698831
        ]
      }
    }
  ]
}